{"fetched_at":"2026-07-16T06:42:31.905Z","source":"https://celestrak.org/NORAD/elements/gp.php?GROUP=kuiper&FORMAT=JSON","constellation":"kuiper","records":[{"OBJECT_NAME":"KUIPER-00438","OBJECT_ID":"2026-098X","EPOCH":"2026-07-15T22:00:01.999584","CLASSIFICATION_TYPE":"U","MEAN_MOTION":15.12095666,"ECCENTRICITY":0.00050696,"INCLINATION":51.8875,"RA_OF_ASC_NODE":290.8647,"ARG_OF_PERICENTER":297.6197,"MEAN_ANOMALY":209.2262,"EPHEMERIS_TYPE":0,"NORAD_CAT_ID":68940,"ELEMENT_SET_NO":999,"REV_AT_EPOCH":460,"BSTAR":-0.0027349535,"MEAN_MOTION_DOT":-0.00047662,"MEAN_MOTION_DDOT":0},{"OBJECT_NAME":"KUIPER-00439","OBJECT_ID":"2026-098Y","EPOCH":"2026-07-15T22:00:01.999584","CLASSIFICATION_TYPE":"U","MEAN_MOTION":15.14868725,"ECCENTRICITY":0.00054655,"INCLINATION":51.8863,"RA_OF_ASC_NODE":290.9529,"ARG_OF_PERICENTER":274.2032,"MEAN_ANOMALY":229.3031,"EPHEMERIS_TYPE":0,"NORAD_CAT_ID":68941,"ELEMENT_SET_NO":999,"REV_AT_EPOCH":434,"BSTAR":-0.027022104,"MEAN_MOTION_DOT":-0.00477373,"MEAN_MOTION_DDOT":0},{"OBJECT_NAME":"KUIPER-00440","OBJECT_ID":"2026-098Z","EPOCH":"2026-07-15T14:58:10.644384","CLASSIFICATION_TYPE":"U","MEAN_MOTION":15.315125,"ECCENTRICITY":0.00027589,"INCLINATION":51.8778,"RA_OF_ASC_NODE":291.5862,"ARG_OF_PERICENTER":302.9834,"MEAN_ANOMALY":57.0885,"EPHEMERIS_TYPE":0,"NORAD_CAT_ID":68942,"ELEMENT_SET_NO":999,"REV_AT_EPOCH":1170,"BSTAR":0.00034642477,"MEAN_MOTION_DOT":0.00010346,"MEAN_MOTION_DDOT":0},{"OBJECT_NAME":"KUIPER-00442","OBJECT_ID":"2026-098AA","EPOCH":"2026-07-15T21:36:35.909568","CLASSIFICATION_TYPE":"U","MEAN_MOTION":15.34211343,"ECCENTRICITY":0.00065637,"INCLINATION":51.8793,"RA_OF_ASC_NODE":289.7071,"ARG_OF_PERICENTER":239.352,"MEAN_ANOMALY":120.6819,"EPHEMERIS_TYPE":0,"NORAD_CAT_ID":68943,"ELEMENT_SET_NO":999,"REV_AT_EPOCH":1175,"BSTAR":-0.0043629299,"MEAN_MOTION_DOT":-0.00144398,"MEAN_MOTION_DDOT":0},{"OBJECT_NAME":"KUIPER-00446","OBJECT_ID":"2026-098AB","EPOCH":"2026-07-15T22:00:01.999584","CLASSIFICATION_TYPE":"U","MEAN_MOTION":15.24048776,"ECCENTRICITY":0.00039567,"INCLINATION":51.8818,"RA_OF_ASC_NODE":289.9604,"ARG_OF_PERICENTER":244.202,"MEAN_ANOMALY":10.3556,"EPHEMERIS_TYPE":0,"NORAD_CAT_ID":68944,"ELEMENT_SET_NO":999,"REV_AT_EPOCH":552,"BSTAR":-0.04801402,"MEAN_MOTION_DOT":-0.01080768,"MEAN_MOTION_DDOT":0},{"OBJECT_NAME":"KUIPER-00451","OBJECT_ID":"2026-098AC","EPOCH":"2026-07-15T22:00:01.999584","CLASSIFICATION_TYPE":"U","MEAN_MOTION":14.83898632,"ECCENTRICITY":0.00108243,"INCLINATION":51.8984,"RA_OF_ASC_NODE":295.9795,"ARG_OF_PERICENTER":272.4034,"MEAN_ANOMALY":167.702,"EPHEMERIS_TYPE":0,"NORAD_CAT_ID":68945,"ELEMENT_SET_NO":999,"REV_AT_EPOCH":571,"BSTAR":-0.011914622,"MEAN_MOTION_DOT":-0.00098814,"MEAN_MOTION_DDOT":0},{"OBJECT_NAME":"KUIPER-00452","OBJECT_ID":"2026-098AD","EPOCH":"2026-07-15T22:00:01.999584","CLASSIFICATION_TYPE":"U","MEAN_MOTION":15.32708469,"ECCENTRICITY":0.0002725,"INCLINATION":51.8756,"RA_OF_ASC_NODE":288.8773,"ARG_OF_PERICENTER":278.8221,"MEAN_ANOMALY":171.1977,"EPHEMERIS_TYPE":0,"NORAD_CAT_ID":68946,"ELEMENT_SET_NO":999,"REV_AT_EPOCH":401,"BSTAR":-0.0016641635,"MEAN_MOTION_DOT":-0.00053349,"MEAN_MOTION_DDOT":0},{"OBJECT_NAME":"KUIPER-00453","OBJECT_ID":"2026-098AE","EPOCH":"2026-07-15T12:44:40.020000","CLASSIFICATION_TYPE":"U","MEAN_MOTION":15.37501257,"ECCENTRICITY":0.00043943,"INCLINATION":51.8764,"RA_OF_ASC_NODE":290.2365,"ARG_OF_PERICENTER":330.492,"MEAN_ANOMALY":29.5818,"EPHEMERIS_TYPE":0,"NORAD_CAT_ID":68947,"ELEMENT_SET_NO":999,"REV_AT_EPOCH":1171,"BSTAR":0.0013519215,"MEAN_MOTION_DOT":0.00050466,"MEAN_MOTION_DDOT":0},{"OBJECT_NAME":"KUIPER-00454","OBJECT_ID":"2026-098AF","EPOCH":"2026-07-15T22:00:01.999584","CLASSIFICATION_TYPE":"U","MEAN_MOTION":14.80314529,"ECCENTRICITY":0.00011391,"INCLINATION":51.9364,"RA_OF_ASC_NODE":297.2254,"ARG_OF_PERICENTER":35.8101,"MEAN_ANOMALY":250.1533,"EPHEMERIS_TYPE":0,"NORAD_CAT_ID":68948,"ELEMENT_SET_NO":999,"REV_AT_EPOCH":531,"BSTAR":-0.084837283,"MEAN_MOTION_DOT":-0.00617514,"MEAN_MOTION_DDOT":0},{"OBJECT_NAME":"KUIPER-00455","OBJECT_ID":"2026-098AG","EPOCH":"2026-07-15T22:00:01.999584","CLASSIFICATION_TYPE":"U","MEAN_MOTION":14.85839624,"ECCENTRICITY":0.00155391,"INCLINATION":51.8993,"RA_OF_ASC_NODE":296.2177,"ARG_OF_PERICENTER":238.8743,"MEAN_ANOMALY":249.5715,"EPHEMERIS_TYPE":0,"NORAD_CAT_ID":68949,"ELEMENT_SET_NO":999,"REV_AT_EPOCH":550,"BSTAR":-0.0092932287,"MEAN_MOTION_DOT":-0.00081159,"MEAN_MOTION_DDOT":0},{"OBJECT_NAME":"KUIPER-00458","OBJECT_ID":"2026-098AH","EPOCH":"2026-07-15T14:59:19.622688","CLASSIFICATION_TYPE":"U","MEAN_MOTION":15.36841241,"ECCENTRICITY":0.00033025,"INCLINATION":51.8773,"RA_OF_ASC_NODE":290.12,"ARG_OF_PERICENTER":309.0399,"MEAN_ANOMALY":51.0294,"EPHEMERIS_TYPE":0,"NORAD_CAT_ID":68950,"ELEMENT_SET_NO":999,"REV_AT_EPOCH":1172,"BSTAR":0.00037794798,"MEAN_MOTION_DOT":0.00013459,"MEAN_MOTION_DDOT":0},{"OBJECT_NAME":"KUIPER-00282","OBJECT_ID":"2026-118A","EPOCH":"2026-07-15T22:00:01.999584","CLASSIFICATION_TYPE":"U","MEAN_MOTION":15.13707926,"ECCENTRICITY":0.00118368,"INCLINATION":51.8763,"RA_OF_ASC_NODE":276.0093,"ARG_OF_PERICENTER":300.0136,"MEAN_ANOMALY":212.5795,"EPHEMERIS_TYPE":0,"NORAD_CAT_ID":69267,"ELEMENT_SET_NO":999,"REV_AT_EPOCH":505,"BSTAR":-0.0043729166,"MEAN_MOTION_DOT":-0.0007931,"MEAN_MOTION_DDOT":0},{"OBJECT_NAME":"KUIPER-00383","OBJECT_ID":"2026-118B","EPOCH":"2026-07-15T22:00:01.999584","CLASSIFICATION_TYPE":"U","MEAN_MOTION":15.28728149,"ECCENTRICITY":0.0010132,"INCLINATION":51.8631,"RA_OF_ASC_NODE":275.3779,"ARG_OF_PERICENTER":297.8818,"MEAN_ANOMALY":196.3295,"EPHEMERIS_TYPE":0,"NORAD_CAT_ID":69268,"ELEMENT_SET_NO":999,"REV_AT_EPOCH":567,"BSTAR":-0.082920033,"MEAN_MOTION_DOT":-0.02118437,"MEAN_MOTION_DDOT":0},{"OBJECT_NAME":"KUIPER-00527","OBJECT_ID":"2026-118C","EPOCH":"2026-07-15T22:00:01.999584","CLASSIFICATION_TYPE":"U","MEAN_MOTION":15.25520226,"ECCENTRICITY":0.00085308,"INCLINATION":51.8703,"RA_OF_ASC_NODE":275.2772,"ARG_OF_PERICENTER":293.7005,"MEAN_ANOMALY":235.169,"EPHEMERIS_TYPE":0,"NORAD_CAT_ID":69269,"ELEMENT_SET_NO":999,"REV_AT_EPOCH":205,"BSTAR":-0.048092141,"MEAN_MOTION_DOT":-0.01128921,"MEAN_MOTION_DDOT":0},{"OBJECT_NAME":"KUIPER-00562","OBJECT_ID":"2026-118D","EPOCH":"2026-07-15T13:46:31.270656","CLASSIFICATION_TYPE":"U","MEAN_MOTION":15.38098315,"ECCENTRICITY":0.0000642,"INCLINATION":51.8718,"RA_OF_ASC_NODE":275.6838,"ARG_OF_PERICENTER":21.4002,"MEAN_ANOMALY":338.7012,"EPHEMERIS_TYPE":0,"NORAD_CAT_ID":69270,"ELEMENT_SET_NO":999,"REV_AT_EPOCH":835,"BSTAR":0.00036344,"MEAN_MOTION_DOT":0.00013475,"MEAN_MOTION_DDOT":0},{"OBJECT_NAME":"KUIPER-00570","OBJECT_ID":"2026-118E","EPOCH":"2026-07-15T22:00:01.999584","CLASSIFICATION_TYPE":"U","MEAN_MOTION":15.00579566,"ECCENTRICITY":0.00088528,"INCLINATION":51.8836,"RA_OF_ASC_NODE":277.2251,"ARG_OF_PERICENTER":299.9468,"MEAN_ANOMALY":288.4296,"EPHEMERIS_TYPE":0,"NORAD_CAT_ID":69271,"ELEMENT_SET_NO":999,"REV_AT_EPOCH":580,"BSTAR":-0.0047036625,"MEAN_MOTION_DOT":-0.0005986,"MEAN_MOTION_DDOT":0}]}
