KUIPER-00438            
1 68940U 26098X   26196.91668981 -.00047662  00000+0 -27350-2 0  9999
2 68940  51.8875 290.8647 0005069 297.6197 209.2262 15.12095666  4604
KUIPER-00439            
1 68941U 26098Y   26196.91668981 -.00477373  00000+0 -27022-1 0  9991
2 68941  51.8863 290.9529 0005465 274.2032 229.3031 15.14868725  4345
KUIPER-00440            
1 68942U 26098Z   26196.62373431  .00010346  00000+0  34642-3 0  9992
2 68942  51.8778 291.5862 0002758 302.9834  57.0885 15.31512500 11706
KUIPER-00442            
1 68943U 26098AA  26196.90041562 -.00144398  00000+0 -43629-2 0  9992
2 68943  51.8793 289.7071 0006563 239.3520 120.6819 15.34211343 11751
KUIPER-00446            
1 68944U 26098AB  26196.91668981 -.01080768  00000+0 -48014-1 0  9997
2 68944  51.8818 289.9604 0003956 244.2020  10.3556 15.24048776  5525
KUIPER-00451            
1 68945U 26098AC  26196.91668981 -.00098814  00000+0 -11915-1 0  9998
2 68945  51.8984 295.9795 0010824 272.4034 167.7020 14.83898632  5710
KUIPER-00452            
1 68946U 26098AD  26196.91668981 -.00053349  00000+0 -16642-2 0  9996
2 68946  51.8756 288.8773 0002725 278.8221 171.1977 15.32708469  4019
KUIPER-00453            
1 68947U 26098AE  26196.53101875  .00050466  00000+0  13519-2 0  9994
2 68947  51.8764 290.2365 0004394 330.4920  29.5818 15.37501257 11714
KUIPER-00454            
1 68948U 26098AF  26196.91668981 -.00617514  00000+0 -84837-1 0  9998
2 68948  51.9364 297.2254 0001139  35.8101 250.1533 14.80314529  5313
KUIPER-00455            
1 68949U 26098AG  26196.91668981 -.00081159  00000+0 -92932-2 0  9995
2 68949  51.8993 296.2177 0015539 238.8743 249.5715 14.85839624  5508
KUIPER-00458            
1 68950U 26098AH  26196.62453267  .00013459  00000+0  37795-3 0  9997
2 68950  51.8773 290.1200 0003302 309.0399  51.0294 15.36841241 11723
KUIPER-00282            
1 69267U 26118A   26196.91668981 -.00079310  00000+0 -43729-2 0  9998
2 69267  51.8763 276.0093 0011836 300.0136 212.5795 15.13707926  5053
KUIPER-00383            
1 69268U 26118B   26196.91668981 -.02118437  00000+0 -82920-1 0  9990
2 69268  51.8631 275.3779 0010132 297.8818 196.3295 15.28728149  5677
KUIPER-00527            
1 69269U 26118C   26196.91668981 -.01128921  00000+0 -48092-1 0  9991
2 69269  51.8703 275.2772 0008530 293.7005 235.1690 15.25520226  2055
KUIPER-00562            
1 69270U 26118D   26196.57397304  .00013475  00000+0  36344-3 0  9996
2 69270  51.8718 275.6838 0000642  21.4002 338.7012 15.38098315  8359
KUIPER-00570            
1 69271U 26118E   26196.91668981 -.00059860  00000+0 -47037-2 0  9997
2 69271  51.8836 277.2251 0008852 299.9468 288.4296 15.00579566  5800
